[Satellite]
VERSION=1.1
NAME=COSMOS 2460 (732)
NICKNAME=COSMOS 2460 (732)
TLE1=1 36402U 10007C   15055.39975083 -.00000009  00000-0  10000-3 0  9997
TLE2=2 36402  65.0292  93.2776 0002132 257.0080 199.9244  2.13102102 38792
